{
  "norad_id": 56067,
  "name": "ONEWEB-0578",
  "history": [
    {
      "epoch": "2026-04-11T20:50:16.144224Z",
      "apogee_km": 1178.8626364075144,
      "perigee_km": 1176.6774680880035,
      "latitude_deg": -6.364440939960459e-05,
      "longitude_deg": 104.5322727267253,
      "height_km": 1180.879173380637,
      "semi_major_axis_km": 7555.907052247759,
      "eccentricity": 0.0001446,
      "inclination_deg": 87.9192,
      "raan_deg": 257.1811,
      "arg_perigee_deg": 100.9062,
      "mean_anomaly_deg": 259.2234,
      "mean_motion_rev_day": 13.21821622
    },
    {
      "epoch": "2026-04-12T22:16:18.818112Z",
      "apogee_km": 1178.8715557822607,
      "perigee_km": 1176.666742367961,
      "latitude_deg": 3.2097783021543446e-05,
      "longitude_deg": 81.76489392054391,
      "height_km": 1180.893979730717,
      "semi_major_axis_km": 7555.906149075111,
      "eccentricity": 0.0001459,
      "inclination_deg": 87.9196,
      "raan_deg": 256.9694,
      "arg_perigee_deg": 101.6415,
      "mean_anomaly_deg": 258.4883,
      "mean_motion_rev_day": 13.21821859
    },
    {
      "epoch": "2026-04-14T16:03:23.194080Z",
      "apogee_km": 1178.9129541131933,
      "perigee_km": 1176.623514827149,
      "latitude_deg": -2.343786474522523e-05,
      "longitude_deg": 172.9330298295459,
      "height_km": 1180.9240992402556,
      "semi_major_axis_km": 7555.90523447017,
      "eccentricity": 0.0001515,
      "inclination_deg": 87.9201,
      "raan_deg": 256.6218,
      "arg_perigee_deg": 102.7969,
      "mean_anomaly_deg": 257.3334,
      "mean_motion_rev_day": 13.21822099
    },
    {
      "epoch": "2026-04-15T19:18:26.015328Z",
      "apogee_km": 1178.9013991927022,
      "perigee_km": 1176.6346276886698,
      "latitude_deg": 1.2029386701372495e-05,
      "longitude_deg": 122.82562810244099,
      "height_km": 1180.9404127028245,
      "semi_major_axis_km": 7555.905013440685,
      "eccentricity": 0.00015,
      "inclination_deg": 87.9205,
      "raan_deg": 256.3953,
      "arg_perigee_deg": 103.7843,
      "mean_anomaly_deg": 256.3458,
      "mean_motion_rev_day": 13.21822157
    },
    {
      "epoch": "2026-04-16T17:06:28.320192Z",
      "apogee_km": 1178.9073124725892,
      "perigee_km": 1176.6314734670268,
      "latitude_deg": -1.1091967108155226e-05,
      "longitude_deg": 154.7394049254594,
      "height_km": 1180.954441728959,
      "semi_major_axis_km": 7555.906392969808,
      "eccentricity": 0.0001506,
      "inclination_deg": 87.9202,
      "raan_deg": 256.214,
      "arg_perigee_deg": 104.3849,
      "mean_anomaly_deg": 255.7452,
      "mean_motion_rev_day": 13.21821795
    },
    {
      "epoch": "2026-04-17T16:43:30.732672Z",
      "apogee_km": 1178.9076138863493,
      "perigee_km": 1176.627544120589,
      "latitude_deg": -8.51649116826147e-06,
      "longitude_deg": 159.31312481062574,
      "height_km": 1180.9617453377957,
      "semi_major_axis_km": 7555.904579003469,
      "eccentricity": 0.00015088,
      "inclination_deg": 87.9205,
      "raan_deg": 256.0177,
      "arg_perigee_deg": 104.8309,
      "mean_anomaly_deg": 255.2992,
      "mean_motion_rev_day": 13.21822271
    },
    {
      "epoch": "2026-04-18T19:58:33.344832Z",
      "apogee_km": 1178.899860114001,
      "perigee_km": 1176.6194904973945,
      "latitude_deg": -5.6670168927795375e-05,
      "longitude_deg": 109.20669188240912,
      "height_km": 1180.9672230728074,
      "semi_major_axis_km": 7555.8966753056975,
      "eccentricity": 0.0001509,
      "inclination_deg": 87.9212,
      "raan_deg": 255.7913,
      "arg_perigee_deg": 105.5243,
      "mean_anomaly_deg": 254.6057,
      "mean_motion_rev_day": 13.21824345
    },
    {
      "epoch": "2026-04-19T19:35:35.689920Z",
      "apogee_km": 1178.9518252099115,
      "perigee_km": 1176.5656733322903,
      "latitude_deg": -4.769841378521122e-05,
      "longitude_deg": 113.780291189082,
      "height_km": 1180.999342692187,
      "semi_major_axis_km": 7555.895749271101,
      "eccentricity": 0.0001579,
      "inclination_deg": 87.9204,
      "raan_deg": 255.5946,
      "arg_perigee_deg": 106.4732,
      "mean_anomaly_deg": 253.6575,
      "mean_motion_rev_day": 13.21824588
    },
    {
      "epoch": "2026-04-20T10:07:37.058016Z",
      "apogee_km": 1179.0068022829446,
      "perigee_km": 1176.4970382191932,
      "latitude_deg": 8.587891153929793e-05,
      "longitude_deg": -104.94378394944631,
      "height_km": 1181.0170965500517,
      "semi_major_axis_km": 7555.888920251068,
      "eccentricity": 0.00016608,
      "inclination_deg": 87.9216,
      "raan_deg": 255.4731,
      "arg_perigee_deg": 106.8159,
      "mean_anomaly_deg": 253.3158,
      "mean_motion_rev_day": 13.2182638
    },
    {
      "epoch": "2026-04-21T20:38:40.290720Z",
      "apogee_km": 1178.9842724577948,
      "perigee_km": 1176.5225633596401,
      "latitude_deg": 7.9431383121969e-05,
      "longitude_deg": 95.5891566795606,
      "height_km": 1181.0213275834667,
      "semi_major_axis_km": 7555.890417908717,
      "eccentricity": 0.0001629,
      "inclination_deg": 87.9213,
      "raan_deg": 255.1871,
      "arg_perigee_deg": 107.2846,
      "mean_anomaly_deg": 252.8467,
      "mean_motion_rev_day": 13.21825987
    },
    {
      "epoch": "2026-04-22T16:37:42.171744Z",
      "apogee_km": 1178.9878342000093,
      "perigee_km": 1176.5231020769033,
      "latitude_deg": -2.0841669614455755e-06,
      "longitude_deg": 154.84450628947158,
      "height_km": 1181.0324193218873,
      "semi_major_axis_km": 7555.892468138456,
      "eccentricity": 0.0001631,
      "inclination_deg": 87.9215,
      "raan_deg": 255.021,
      "arg_perigee_deg": 107.7026,
      "mean_anomaly_deg": 252.4286,
      "mean_motion_rev_day": 13.21825449
    },
    {
      "epoch": "2026-04-23T03:31:43.113792Z",
      "apogee_km": 1178.9898979497466,
      "perigee_km": 1176.5135309824673,
      "latitude_deg": 1.472379961306727e-05,
      "longitude_deg": -9.197677151527262,
      "height_km": 1181.0306045493708,
      "semi_major_axis_km": 7555.888714466107,
      "eccentricity": 0.00016387,
      "inclination_deg": 87.9215,
      "raan_deg": 254.9304,
      "arg_perigee_deg": 107.7115,
      "mean_anomaly_deg": 252.4198,
      "mean_motion_rev_day": 13.21826434
    },
    {
      "epoch": "2026-04-24T19:29:46.949280Z",
      "apogee_km": 1179.0254573917628,
      "perigee_km": 1176.4851663965037,
      "latitude_deg": 4.91467653502279e-06,
      "longitude_deg": 109.31272261491632,
      "height_km": 1181.05453234891,
      "semi_major_axis_km": 7555.892311894133,
      "eccentricity": 0.0001681,
      "inclination_deg": 87.9216,
      "raan_deg": 254.5982,
      "arg_perigee_deg": 108.2172,
      "mean_anomaly_deg": 251.9145,
      "mean_motion_rev_day": 13.2182549
    },
    {
      "epoch": "2026-04-25T19:06:49.099104Z",
      "apogee_km": 1179.0044388888573,
      "perigee_km": 1176.49890620504,
      "latitude_deg": -5.432415091039873e-05,
      "longitude_deg": 113.88763609987788,
      "height_km": 1181.0633229323955,
      "semi_major_axis_km": 7555.888672546948,
      "eccentricity": 0.0001658,
      "inclination_deg": 87.9217,
      "raan_deg": 254.402,
      "arg_perigee_deg": 109.0763,
      "mean_anomaly_deg": 251.055,
      "mean_motion_rev_day": 13.21826445
    },
    {
      "epoch": "2026-04-26T22:21:51.619680Z",
      "apogee_km": 1179.033549671717,
      "perigee_km": 1176.471045375355,
      "latitude_deg": 3.728468933106756e-05,
      "longitude_deg": 63.78149102458805,
      "height_km": 1181.0731239470579,
      "semi_major_axis_km": 7555.889297523536,
      "eccentricity": 0.00016957,
      "inclination_deg": 87.9219,
      "raan_deg": 254.1755,
      "arg_perigee_deg": 109.0734,
      "mean_anomaly_deg": 251.0584,
      "mean_motion_rev_day": 13.21826281
    },
    {
      "epoch": "2026-04-27T20:09:53.627328Z",
      "apogee_km": 1179.046945336533,
      "perigee_km": 1176.4582975522253,
      "latitude_deg": -1.8590802960547977e-05,
      "longitude_deg": 95.69680744567162,
      "height_km": 1181.083770847996,
      "semi_major_axis_km": 7555.8896214443785,
      "eccentricity": 0.0001713,
      "inclination_deg": 87.9222,
      "raan_deg": 253.9945,
      "arg_perigee_deg": 109.3576,
      "mean_anomaly_deg": 250.7743,
      "mean_motion_rev_day": 13.21826196
    }
  ]
}